{
  "type": "FeatureCollection",
  "name": "Himalayas_outline",
  "features": [
    {
      "type": "Feature",
      "properties": {
        "name": "Himalayan Range (example outline)",
        "description": "Generalized outline of the Himalayas for use in HMA2_MATCHA subsetting tutorial"
      },
      "geometry": {
        "type": "Polygon",
        "coordinates": [
          [
            [
              78.525059,
              34.845245
            ],
            [
              73.784415,
              36.795297
            ],
            [
              71.733498,
              36.190109
            ],
            [
              71.330039,
              34.677137
            ],
            [
              73.922933,
              31.793982
            ],
            [
              77.539772,
              29.694959
            ],
            [
              80.662171,
              28.294403
            ],
            [
              83.873851,
              26.899178
            ],
            [
              87.026734,
              26.372474
            ],
            [
              90.186931,
              26.362817
            ],
            [
              93.833806,
              26.608952
            ],
            [
              96.815202,
              27.482118
            ],
            [
              97.891093,
              28.558008
            ],
            [
              97.857471,
              30.171844
            ],
            [
              96.478986,
              31.247735
            ],
            [
              94.999637,
              31.046006
            ],
            [
              92.915098,
              30.138223
            ],
            [
              89.783981,
              29.253759
            ],
            [
              85.875042,
              30.004828
            ],
            [
              82.214304,
              31.710842
            ],
            [
              78.525059,
              34.845245
            ]
          ]
        ]
      }
    }
  ]
}